[Satellite]
VERSION=1.1
NAME=FLOCK 2E'-10
NICKNAME=FLOCK 2E'-10
TLE1=1 41576U 98067KA  18021.04895946  .00245733  34062-4  69144-3 0  9990
TLE2=2 41576  51.6288 329.8958 0001316 166.2154 193.8889 15.93074592 93851
